CCSDS_OMM_VERS = 2.0
CREATION_DATE  = 
ORIGINATOR     = 

OBJECT_NAME    = ATLAS CENTAUR R/B
OBJECT_ID      = 1972-065B
CENTER_NAME    = EARTH
REF_FRAME      = TEME
TIME_SYSTEM    = UTC
MEAN_ELEMENT_THEORY = SGP/SGP4

EPOCH          = 2026-03-26T07:33:00.192384
MEAN_MOTION    = 14.77732108
ECCENTRICITY   = .00331648
INCLINATION    = 35.0006
RA_OF_ASC_NODE = 208.3204
ARG_OF_PERICENTER = 151.0162
MEAN_ANOMALY   = 209.2387

EPHEMERIS_TYPE = 0
CLASSIFICATION_TYPE = U
NORAD_CAT_ID   = 6155
ELEMENT_SET_NO = 999
REV_AT_EPOCH   = 84372
BSTAR          = .18362045E-3
MEAN_MOTION_DOT = .1327E-4
MEAN_MOTION_DDOT = 0

CCSDS_OMM_VERS = 2.0
CREATION_DATE  = 
ORIGINATOR     = 

OBJECT_NAME    = SL-8 R/B
OBJECT_ID      = 1975-112B
CENTER_NAME    = EARTH
REF_FRAME      = TEME
TIME_SYSTEM    = UTC
MEAN_ELEMENT_THEORY = SGP/SGP4

EPOCH          = 2026-03-26T03:03:52.745184
MEAN_MOTION    = 14.38213133
ECCENTRICITY   = .00145165
INCLINATION    = 74.0633
RA_OF_ASC_NODE = 348.6764
ARG_OF_PERICENTER = 75.1057
MEAN_ANOMALY   = 285.1704

EPHEMERIS_TYPE = 0
CLASSIFICATION_TYPE = U
NORAD_CAT_ID   = 8459
ELEMENT_SET_NO = 999
REV_AT_EPOCH   = 63423
BSTAR          = .87565459E-4
MEAN_MOTION_DOT = .24E-5
MEAN_MOTION_DDOT = 0

CCSDS_OMM_VERS = 2.0
CREATION_DATE  = 
ORIGINATOR     = 

OBJECT_NAME    = SL-3 R/B
OBJECT_ID      = 1977-057B
CENTER_NAME    = EARTH
REF_FRAME      = TEME
TIME_SYSTEM    = UTC
MEAN_ELEMENT_THEORY = SGP/SGP4

EPOCH          = 2026-03-26T05:26:35.621088
MEAN_MOTION    = 15.45953218
ECCENTRICITY   = .00066072
INCLINATION    = 97.5798
RA_OF_ASC_NODE = 257.8833
ARG_OF_PERICENTER = 214.8473
MEAN_ANOMALY   = 145.2344

EPHEMERIS_TYPE = 0
CLASSIFICATION_TYPE = U
NORAD_CAT_ID   = 10114
ELEMENT_SET_NO = 999
REV_AT_EPOCH   = 67088
BSTAR          = .26664538E-3
MEAN_MOTION_DOT = .12906E-3
MEAN_MOTION_DDOT = 0

CCSDS_OMM_VERS = 2.0
CREATION_DATE  = 
ORIGINATOR     = 

OBJECT_NAME    = SEASAT 1
OBJECT_ID      = 1978-064A
CENTER_NAME    = EARTH
REF_FRAME      = TEME
TIME_SYSTEM    = UTC
MEAN_ELEMENT_THEORY = SGP/SGP4

EPOCH          = 2026-03-26T03:59:49.373088
MEAN_MOTION    = 14.46173411
ECCENTRICITY   = .00025845
INCLINATION    = 108.0080
RA_OF_ASC_NODE = 160.0724
ARG_OF_PERICENTER = 277.9475
MEAN_ANOMALY   = 82.1377

EPHEMERIS_TYPE = 0
CLASSIFICATION_TYPE = U
NORAD_CAT_ID   = 10967
ELEMENT_SET_NO = 999
REV_AT_EPOCH   = 50889
BSTAR          = .11080213E-3
MEAN_MOTION_DOT = .259E-5
MEAN_MOTION_DDOT = 0

CCSDS_OMM_VERS = 2.0
CREATION_DATE  = 
ORIGINATOR     = 

OBJECT_NAME    = SL-14 R/B
OBJECT_ID      = 1979-011B
CENTER_NAME    = EARTH
REF_FRAME      = TEME
TIME_SYSTEM    = UTC
MEAN_ELEMENT_THEORY = SGP/SGP4

EPOCH          = 2026-03-26T01:54:34.231968
MEAN_MOTION    = 14.91928157
ECCENTRICITY   = .00162073
INCLINATION    = 82.5207
RA_OF_ASC_NODE = 81.0132
ARG_OF_PERICENTER = 8.7221
MEAN_ANOMALY   = 351.4277

EPHEMERIS_TYPE = 0
CLASSIFICATION_TYPE = U
NORAD_CAT_ID   = 11267
ELEMENT_SET_NO = 999
REV_AT_EPOCH   = 53122
BSTAR          = .62114376E-4
MEAN_MOTION_DOT = .655E-5
MEAN_MOTION_DDOT = 0

CCSDS_OMM_VERS = 2.0
CREATION_DATE  = 
ORIGINATOR     = 

OBJECT_NAME    = SL-8 R/B
OBJECT_ID      = 1979-089B
CENTER_NAME    = EARTH
REF_FRAME      = TEME
TIME_SYSTEM    = UTC
MEAN_ELEMENT_THEORY = SGP/SGP4

EPOCH          = 2026-03-26T06:04:18.544224
MEAN_MOTION    = 14.42359977
ECCENTRICITY   = .00168399
INCLINATION    = 74.0681
RA_OF_ASC_NODE = 60.3796
ARG_OF_PERICENTER = 231.0223
MEAN_ANOMALY   = 128.9435

EPHEMERIS_TYPE = 0
CLASSIFICATION_TYPE = U
NORAD_CAT_ID   = 11574
ELEMENT_SET_NO = 999
REV_AT_EPOCH   = 43849
BSTAR          = .86166781E-4
MEAN_MOTION_DOT = .259E-5
MEAN_MOTION_DDOT = 0

CCSDS_OMM_VERS = 2.0
CREATION_DATE  = 
ORIGINATOR     = 

OBJECT_NAME    = SL-14 R/B
OBJECT_ID      = 1980-005B
CENTER_NAME    = EARTH
REF_FRAME      = TEME
TIME_SYSTEM    = UTC
MEAN_ELEMENT_THEORY = SGP/SGP4

EPOCH          = 2026-03-26T00:52:13.762560
MEAN_MOTION    = 14.90947880
ECCENTRICITY   = .00172004
INCLINATION    = 82.5115
RA_OF_ASC_NODE = 291.7272
ARG_OF_PERICENTER = 107.3287
MEAN_ANOMALY   = 252.9815

EPHEMERIS_TYPE = 0
CLASSIFICATION_TYPE = U
NORAD_CAT_ID   = 11672
ELEMENT_SET_NO = 999
REV_AT_EPOCH   = 47892
BSTAR          = .50984077E-4
MEAN_MOTION_DOT = .53E-5
MEAN_MOTION_DDOT = 0

CCSDS_OMM_VERS = 2.0
CREATION_DATE  = 
ORIGINATOR     = 

OBJECT_NAME    = SL-8 R/B
OBJECT_ID      = 1981-003B
CENTER_NAME    = EARTH
REF_FRAME      = TEME
TIME_SYSTEM    = UTC
MEAN_ELEMENT_THEORY = SGP/SGP4

EPOCH          = 2026-03-26T00:34:25.189824
MEAN_MOTION    = 15.11671572
ECCENTRICITY   = .02611653
INCLINATION    = 82.9350
RA_OF_ASC_NODE = 274.9115
ARG_OF_PERICENTER = 121.7689
MEAN_ANOMALY   = 240.9276

EPHEMERIS_TYPE = 0
CLASSIFICATION_TYPE = U
NORAD_CAT_ID   = 12139
ELEMENT_SET_NO = 999
REV_AT_EPOCH   = 31714
BSTAR          = .51350999E-3
MEAN_MOTION_DOT = .20439E-3
MEAN_MOTION_DDOT = 0

CCSDS_OMM_VERS = 2.0
CREATION_DATE  = 
ORIGINATOR     = 

OBJECT_NAME    = SL-3 R/B
OBJECT_ID      = 1981-046B
CENTER_NAME    = EARTH
REF_FRAME      = TEME
TIME_SYSTEM    = UTC
MEAN_ELEMENT_THEORY = SGP/SGP4

EPOCH          = 2026-03-26T06:21:14.299776
MEAN_MOTION    = 15.42390203
ECCENTRICITY   = .00183472
INCLINATION    = 81.2288
RA_OF_ASC_NODE = 269.8308
ARG_OF_PERICENTER = 323.8005
MEAN_ANOMALY   = 36.1995

EPHEMERIS_TYPE = 0
CLASSIFICATION_TYPE = U
NORAD_CAT_ID   = 12465
ELEMENT_SET_NO = 999
REV_AT_EPOCH   = 44098
BSTAR          = .25578157E-3
MEAN_MOTION_DOT = .11143E-3
MEAN_MOTION_DDOT = 0

CCSDS_OMM_VERS = 2.0
CREATION_DATE  = 
ORIGINATOR     = 

OBJECT_NAME    = SL-3 R/B
OBJECT_ID      = 1981-103B
CENTER_NAME    = EARTH
REF_FRAME      = TEME
TIME_SYSTEM    = UTC
MEAN_ELEMENT_THEORY = SGP/SGP4

EPOCH          = 2026-03-26T06:42:36.466272
MEAN_MOTION    = 15.21568899
ECCENTRICITY   = .00126837
INCLINATION    = 81.1605
RA_OF_ASC_NODE = 193.9716
ARG_OF_PERICENTER = 227.2307
MEAN_ANOMALY   = 132.7858

EPHEMERIS_TYPE = 0
CLASSIFICATION_TYPE = U
NORAD_CAT_ID   = 12904
ELEMENT_SET_NO = 999
REV_AT_EPOCH   = 97575
BSTAR          = .20704771E-3
MEAN_MOTION_DOT = .4701E-4
MEAN_MOTION_DDOT = 0

CCSDS_OMM_VERS = 2.0
CREATION_DATE  = 
ORIGINATOR     = 

OBJECT_NAME    = SL-3 R/B
OBJECT_ID      = 1982-013B
CENTER_NAME    = EARTH
REF_FRAME      = TEME
TIME_SYSTEM    = UTC
MEAN_ELEMENT_THEORY = SGP/SGP4

EPOCH          = 2026-03-26T06:44:35.165184
MEAN_MOTION    = 15.22164229
ECCENTRICITY   = .002343
INCLINATION    = 81.1743
RA_OF_ASC_NODE = 141.3243
ARG_OF_PERICENTER = 122.9026
MEAN_ANOMALY   = 237.4465

EPHEMERIS_TYPE = 0
CLASSIFICATION_TYPE = U
NORAD_CAT_ID   = 13068
ELEMENT_SET_NO = 999
REV_AT_EPOCH   = 40687
BSTAR          = .15476657E-3
MEAN_MOTION_DOT = .3603E-4
MEAN_MOTION_DDOT = 0

CCSDS_OMM_VERS = 2.0
CREATION_DATE  = 
ORIGINATOR     = 

OBJECT_NAME    = SL-3 R/B
OBJECT_ID      = 1982-039B
CENTER_NAME    = EARTH
REF_FRAME      = TEME
TIME_SYSTEM    = UTC
MEAN_ELEMENT_THEORY = SGP/SGP4

EPOCH          = 2026-03-26T06:54:45.874944
MEAN_MOTION    = 15.10170933
ECCENTRICITY   = .00287964
INCLINATION    = 81.1570
RA_OF_ASC_NODE = 196.8237
ARG_OF_PERICENTER = 269.7110
MEAN_ANOMALY   = 90.0815

EPHEMERIS_TYPE = 0
CLASSIFICATION_TYPE = U
NORAD_CAT_ID   = 13154
ELEMENT_SET_NO = 999
REV_AT_EPOCH   = 38414
BSTAR          = .1466505E-3
MEAN_MOTION_DOT = .2439E-4
MEAN_MOTION_DDOT = 0

